[
    {
        "Altitude(m)": 624790.8011226055,
        "Argument of Periapsis(deg)": 0.0,
        "Eccentricity": 0.0,
        "Inclination(deg)": 60.0,
        "Latitude(deg)": -59.14713396469023,
        "Longitude(deg)": 11.034794229481,
        "Mean Anomaly(deg)": -81.8182,
        "RAAN(deg)": 184.99999999999997,
        "Satellite Name": "Test1 831",
        "Satellite Number": 831,
        "Semi-Major Axis(m)": 6980739.136638005,
        "Time(s)": 0
    },
    {
        "Altitude(m)": 624737.4554789102,
        "Argument of Periapsis(deg)": 0.00010418945913296404,
        "Eccentricity": 0.0,
        "Inclination(deg)": 60.0,
        "Latitude(deg)": -58.994586901157746,
        "Longitude(deg)": 12.154295691124181,
        "Mean Anomaly(deg)": -81.19809385453816,
        "RAAN(deg)": 184.99957995086024,
        "Satellite Name": "Test1 831",
        "Satellite Number": 831,
        "Semi-Major Axis(m)": 6980739.136638005,
        "Time(s)": 10
    }
]